{
  "type": "FeatureCollection",
  "features": [
    {
      "type": "Feature",
      "properties": {
        "norad_id": 58701,
        "name": "TIANMU-1 16",
        "group": "weather",
        "lat": 44.57609909474342,
        "lon": 153.9515926154732,
        "alt_km": 488.68400724465573,
        "timestamp": "2025-12-06T11:28:10.672676+00:00",
        "meta_object_name": "TIANMU-1 16",
        "meta_object_id": "2024-004B",
        "meta_epoch": "2025-12-05T22:40:07.286592",
        "meta_mean_motion": 15.24293345,
        "meta_eccentricity": 0.00048987,
        "meta_inclination": 97.4562,
        "meta_ra_of_asc_node": 160.8353,
        "meta_arg_of_pericenter": 324.8459,
        "meta_mean_anomaly": 35.2454,
        "meta_ephemeris_type": 0,
        "meta_classification_type": "U",
        "meta_norad_cat_id": 58701,
        "meta_element_set_no": 999,
        "meta_rev_at_epoch": 10631,
        "meta_bstar": 0.00042189675,
        "meta_mean_motion_dot": 0.00010245,
        "meta_mean_motion_ddot": 0,
        "tle_line1": "1 58701U 24004B   25339.94452878  .00010245  00000+0  42190-3 0  9990",
        "tle_line2": "2 58701  97.4562 160.8353 0004898 324.8459  35.2454 15.24293345106318"
      },
      "geometry": {
        "type": "Point",
        "coordinates": [
          153.9515926154732,
          44.57609909474342
        ]
      }
    },
    {
      "type": "Feature",
      "properties": {
        "norad_id": 58702,
        "name": "TIANMU-1 17",
        "group": "weather",
        "lat": 50.73915842292843,
        "lon": -9.00246315912062,
        "alt_km": 490.8274308796381,
        "timestamp": "2025-12-06T11:28:10.672686+00:00",
        "meta_object_name": "TIANMU-1 17",
        "meta_object_id": "2024-004C",
        "meta_epoch": "2025-12-05T22:18:13.490784",
        "meta_mean_motion": 15.24338425,
        "meta_eccentricity": 0.00041434,
        "meta_inclination": 97.4597,
        "meta_ra_of_asc_node": 161.2267,
        "meta_arg_of_pericenter": 328.6832,
        "meta_mean_anomaly": 31.4158,
        "meta_ephemeris_type": 0,
        "meta_classification_type": "U",
        "meta_norad_cat_id": 58702,
        "meta_element_set_no": 999,
        "meta_rev_at_epoch": 10630,
        "meta_bstar": 0.00044989999,
        "meta_mean_motion_dot": 0.00010944,
        "meta_mean_motion_ddot": 0,
        "tle_line1": "1 58702U 24004C   25339.92932281  .00010944  00000+0  44990-3 0  9996",
        "tle_line2": "2 58702  97.4597 161.2267 0004143 328.6832  31.4158 15.24338425106303"
      },
      "geometry": {
        "type": "Point",
        "coordinates": [
          -9.00246315912062,
          50.73915842292843
        ]
      }
    },
    {
      "type": "Feature",
      "properties": {
        "norad_id": 58703,
        "name": "TIANMU-1 18",
        "group": "weather",
        "lat": -39.99111428911841,
        "lon": -24.344981335304624,
        "alt_km": 500.1039506084999,
        "timestamp": "2025-12-06T11:28:10.672696+00:00",
        "meta_object_name": "TIANMU-1 18",
        "meta_object_id": "2024-004D",
        "meta_epoch": "2025-12-05T21:54:07.509024",
        "meta_mean_motion": 15.24329398,
        "meta_eccentricity": 0.00034846,
        "meta_inclination": 97.4615,
        "meta_ra_of_asc_node": 161.404,
        "meta_arg_of_pericenter": 330.75,
        "meta_mean_anomaly": 29.3542,
        "meta_ephemeris_type": 0,
        "meta_classification_type": "U",
        "meta_norad_cat_id": 58703,
        "meta_element_set_no": 999,
        "meta_rev_at_epoch": 10630,
        "meta_bstar": 0.00042471343,
        "meta_mean_motion_dot": 0.00010323,
        "meta_mean_motion_ddot": 0,
        "tle_line1": "1 58703U 24004D   25339.91258691  .00010323  00000+0  42471-3 0  9995",
        "tle_line2": "2 58703  97.4615 161.4040 0003484 330.7500  29.3542 15.24329398106301"
      },
      "geometry": {
        "type": "Point",
        "coordinates": [
          -24.344981335304624,
          -39.99111428911841
        ]
      }
    },
    {
      "type": "Feature",
      "properties": {
        "norad_id": 58990,
        "name": "INSAT-3DS",
        "group": "weather",
        "lat": -0.011946826716875759,
        "lon": -30.338469381925297,
        "alt_km": 35783.77465815898,
        "timestamp": "2025-12-06T11:28:10.672707+00:00",
        "meta_object_name": "INSAT-3DS",
        "meta_object_id": "2024-033A",
        "meta_epoch": "2025-12-05T22:31:38.798400",
        "meta_mean_motion": 1.0026967,
        "meta_eccentricity": 0.00017512,
        "meta_inclination": 0.0081,
        "meta_ra_of_asc_node": 11.9149,
        "meta_arg_of_pericenter": 251.018,
        "meta_mean_anomaly": 232.0619,
        "meta_ephemeris_type": 0,
        "meta_classification_type": "U",
        "meta_norad_cat_id": 58990,
        "meta_element_set_no": 999,
        "meta_rev_at_epoch": 4513,
        "meta_bstar": 0,
        "meta_mean_motion_dot": -1.47e-06,
        "meta_mean_motion_ddot": 0,
        "tle_line1": "1 58990U 24033A   25339.93864350 -.00000147  00000+0  00000+0 0  9994",
        "tle_line2": "2 58990   0.0081  11.9149 0001751 251.0180 232.0619  1.00269670 45135"
      },
      "geometry": {
        "type": "Point",
        "coordinates": [
          -30.338469381925297,
          -0.011946826716875759
        ]
      }
    },
    {
      "type": "Feature",
      "properties": {
        "norad_id": 59051,
        "name": "METEOR-M2 4",
        "group": "weather",
        "lat": 9.168277861130434,
        "lon": 118.89721276803404,
        "alt_km": 823.7128323448933,
        "timestamp": "2025-12-06T11:28:10.672737+00:00",
        "meta_object_name": "METEOR-M2 4",
        "meta_object_id": "2024-039A",
        "meta_epoch": "2025-12-05T22:51:09.652320",
        "meta_mean_motion": 14.22399605,
        "meta_eccentricity": 0.00074161,
        "meta_inclination": 98.6757,
        "meta_ra_of_asc_node": 296.9678,
        "meta_arg_of_pericenter": 17.6659,
        "meta_mean_anomaly": 342.4776,
        "meta_ephemeris_type": 0,
        "meta_classification_type": "U",
        "meta_norad_cat_id": 59051,
        "meta_element_set_no": 999,
        "meta_rev_at_epoch": 9179,
        "meta_bstar": 5.9379515e-05,
        "meta_mean_motion_dot": 8.9e-07,
        "meta_mean_motion_ddot": 0,
        "tle_line1": "1 59051U 24039A   25339.95219505  .00000089  00000+0  59380-4 0  9991",
        "tle_line2": "2 59051  98.6757 296.9678 0007416  17.6659 342.4776 14.22399605 91793"
      },
      "geometry": {
        "type": "Point",
        "coordinates": [
          118.89721276803404,
          9.168277861130434
        ]
      }
    },
    {
      "type": "Feature",
      "properties": {
        "norad_id": 60133,
        "name": "GOES 19",
        "group": "weather",
        "lat": 0.002202722054853134,
        "lon": 172.35139757553443,
        "alt_km": 35790.213699212596,
        "timestamp": "2025-12-06T11:28:10.672752+00:00",
        "meta_object_name": "GOES 19",
        "meta_object_id": "2024-119A",
        "meta_epoch": "2025-12-05T21:53:54.631104",
        "meta_mean_motion": 1.00270239,
        "meta_eccentricity": 0.00014349,
        "meta_inclination": 0.0187,
        "meta_ra_of_asc_node": 146.7323,
        "meta_arg_of_pericenter": 152.9768,
        "meta_mean_anomaly": 28.5465,
        "meta_ephemeris_type": 0,
        "meta_classification_type": "U",
        "meta_norad_cat_id": 60133,
        "meta_element_set_no": 999,
        "meta_rev_at_epoch": 502,
        "meta_bstar": 0,
        "meta_mean_motion_dot": -2.39e-06,
        "meta_mean_motion_ddot": 0,
        "tle_line1": "1 60133U 24119A   25339.91243786 -.00000239  00000+0  00000+0 0  9995",
        "tle_line2": "2 60133   0.0187 146.7323 0001434 152.9768  28.5465  1.00270239  5028"
      },
      "geometry": {
        "type": "Point",
        "coordinates": [
          172.35139757553443,
          0.002202722054853134
        ]
      }
    },
    {
      "type": "Feature",
      "properties": {
        "norad_id": 65815,
        "name": "FENGYUN 3H",
        "group": "weather",
        "lat": 72.08872329370516,
        "lon": 128.32909060878637,
        "alt_km": 818.3405352509626,
        "timestamp": "2025-12-06T11:28:10.672763+00:00",
        "meta_object_name": "FENGYUN 3H",
        "meta_object_id": "2025-219A",
        "meta_epoch": "2025-12-05T21:26:38.175360",
        "meta_mean_motion": 14.19901681,
        "meta_eccentricity": 6.133e-05,
        "meta_inclination": 98.6574,
        "meta_ra_of_asc_node": 279.6329,
        "meta_arg_of_pericenter": 76.1673,
        "meta_mean_anomaly": 283.9572,
        "meta_ephemeris_type": 0,
        "meta_classification_type": "U",
        "meta_norad_cat_id": 65815,
        "meta_element_set_no": 999,
        "meta_rev_at_epoch": 995,
        "meta_bstar": 0.00011703428,
        "meta_mean_motion_dot": 2.05e-06,
        "meta_mean_motion_ddot": 0,
        "tle_line1": "1 65815U 25219A   25339.89349740  .00000205  00000+0  11703-3 0  9991",
        "tle_line2": "2 65815  98.6574 279.6329 0000613  76.1673 283.9572 14.19901681  9953"
      },
      "geometry": {
        "type": "Point",
        "coordinates": [
          128.32909060878637,
          72.08872329370516
        ]
      }
    }
  ]
}